GLOBALSTAR M094         
1 39074U 13005C   26001.21611265 -.00000093  00000+0  60238-4 0  9990
2 39074  51.9975 299.1790 0000718  36.0693 324.0222 12.62265510597388
GLOBALSTAR M096         
1 39075U 13005D   26001.30830123 -.00000095  00000+0  50936-4 0  9993
2 39075  52.0100 347.5649 0000353  21.4598 338.6283 12.62269645596312
GLOBALSTAR M078         
1 39076U 13005E   26001.59899742 -.00000135  00000+0 -17269-3 0  9994
2 39076  51.9886  70.9220 0000583 228.1363 131.9454 12.62270940594979
GLOBALSTAR M095         
1 39077U 13005F   26001.54613529 -.00000083  00000+0  11789-3 0  9999
2 39077  52.0096  68.4507 0000092 149.0358 211.0515 12.62267552594822
GLOBALSTAR M087         
1 52888U 22064A   26001.95516442 -.00000069  00000+0  19375-3 0  9993
2 52888  51.9969 208.5392 0000974  69.9344 290.1627 12.62262227170148
